     2              NAVIGATION DATA                         RINEX VERSION / TYPE
CCRINEXN V1.6.0 UX  CDDIS               15-DEC-24 23:31     PGM / RUN BY / DATE 
IGS BROADCAST EPHEMERIS FILE                                COMMENT             
    0.2328D-07  0.0000D+00 -0.1192D-06  0.1192D-06          ION ALPHA           
    0.1434D+06 -0.1966D+06  0.0000D+00  0.1966D+06          ION BETA            
   -0.931322574616D-09-0.976996261670D-14    61440     2345 DELTA-UTC: A0,A1,T,W
    18                                                      LEAP SECONDS        
                                                            END OF HEADER       
 9 24 12 14 10  0  0.0 0.486471224576D-03 0.161435309565D-10 0.000000000000D+00
    0.800000000000D+02-0.124375000000D+02 0.453340312015D-08 0.179535516043D+01
   -0.698491930962D-06 0.315171678085D-02 0.946410000324D-05 0.515354599380D+04
    0.554400000000D+06 0.353902578354D-07 0.579849433788D+00-0.745058059692D-07
    0.960347035543D+00 0.192781250000D+03 0.202718683571D+01-0.775746598674D-08
    0.582881422208D-09 0.100000000000D+01 0.234400000000D+04 0.000000000000D+00
    0.200000000000D+01 0.000000000000D+00 0.931322574616D-09 0.800000000000D+02
    0.551748000000D+06 0.400000000000D+01 0.000000000000D+00 0.000000000000D+00
10 24 12 14 10  0  0.0-0.233940780163D-03-0.153477230924D-10 0.000000000000D+00
    0.121000000000D+03-0.176562500000D+03 0.361943647834D-08-0.309167453133D+01
   -0.911206007004D-05 0.100643461337D-01 0.100824981928D-04 0.515369351196D+04
    0.554400000000D+06 0.167638063431D-07-0.437615609932D+00-0.171363353729D-06
    0.987289853820D+00 0.199781250000D+03-0.234505883092D+01-0.740137972574D-08
    0.521450291926D-10 0.100000000000D+01 0.234400000000D+04 0.000000000000D+00
    0.280000000000D+01 0.000000000000D+00 0.232830643654D-08 0.121000000000D+03
    0.547218000000D+06 0.400000000000D+01 0.000000000000D+00 0.000000000000D+00
11 24 12 14 10  0  0.0-0.752600375563D-03-0.341060513165D-12 0.000000000000D+00
    0.178000000000D+03-0.498125000000D+02 0.460733477113D-08 0.324935134853D+00
   -0.273436307907D-05 0.177850073669D-02-0.238418579102D-06 0.515358702278D+04
    0.554400000000D+06-0.745058059692D-08-0.144246097663D+01-0.111758708954D-07
    0.965749097544D+00 0.388250000000D+03-0.235886797152D+01-0.845999524990D-08
   -0.560737642688D-10 0.100000000000D+01 0.234400000000D+04 0.000000000000D+00
    0.200000000000D+01 0.000000000000D+00-0.884756445885D-08 0.946000000000D+03
    0.547226000000D+06 0.400000000000D+01 0.000000000000D+00 0.000000000000D+00
12 24 12 14 10  0  0.0-0.558273401111D-03-0.238742359215D-11 0.000000000000D+00
    0.610000000000D+02 0.670312500000D+02 0.410695678552D-08-0.225682245883D+01
    0.346638262272D-05 0.893280585296D-02 0.110715627670D-04 0.515378317642D+04
    0.554400000000D+06 0.178813934326D-06 0.276900730717D+01-0.186264514923D-08
    0.961407281032D+00 0.167000000000D+03 0.146169401475D+01-0.746816822204D-08
   -0.550022910662D-09 0.100000000000D+01 0.234400000000D+04 0.000000000000D+00
    0.200000000000D+01 0.000000000000D+00-0.125728547573D-07 0.610000000000D+02
    0.547218000000D+06 0.400000000000D+01 0.000000000000D+00 0.000000000000D+00
13 24 12 14 10  0  0.0 0.689907465130D-03 0.147792889038D-11 0.000000000000D+00
    0.920000000000D+02 0.740625000000D+01 0.453947480163D-08 0.938751852863D+00
    0.508502125740D-06 0.880246923771D-02 0.868737697601D-05 0.515368137360D+04
    0.554400000000D+06-0.875443220139D-07 0.748720282154D+00 0.115483999252D-06
    0.972683084932D+00 0.219125000000D+03 0.972286334234D+00-0.794318800852D-08
    0.545737017852D-09 0.100000000000D+01 0.234400000000D+04 0.000000000000D+00
    0.200000000000D+01 0.000000000000D+00-0.111758708954D-07 0.920000000000D+02
    0.547218000000D+06 0.400000000000D+01 0.000000000000D+00 0.000000000000D+00
14 24 12 14 10  0  0.0 0.559891108423D-03 0.761701812735D-11 0.000000000000D+00
    0.880000000000D+02 0.465000000000D+02 0.446768609706D-08-0.240494396181D+01
    0.240840017796D-05 0.509041966870D-02 0.115204602480D-04 0.515370320129D+04
    0.554400000000D+06-0.502914190292D-07 0.272143193703D+01 0.279396772385D-07
    0.944688895227D+00 0.148968750000D+03-0.286445640813D+01-0.773496504948D-08
   -0.523950396066D-09 0.100000000000D+01 0.234400000000D+04 0.000000000000D+00
    0.200000000000D+01 0.000000000000D+00-0.791624200000D-08 0.880000000000D+02
    0.548190000000D+06 0.400000000000D+01 0.000000000000D+00 0.000000000000D+00
15 24 12 14 10  0  0.0 0.239423010498D-03 0.454747350886D-11 0.000000000000D+00
    0.470000000000D+02-0.151250000000D+02 0.519557355935D-08 0.222825789200D+00
   -0.599771738052D-06 0.161390573485D-01 0.103190541267D-04 0.515373252106D+04
    0.554400000000D+06-0.264495611191D-06 0.446866716192D+00 0.353902578354D-07
    0.937634394110D+00 0.172000000000D+03 0.138295920343D+01-0.838606359892D-08
    0.590024576892D-09 0.100000000000D+01 0.234400000000D+04 0.000000000000D+00
    0.200000000000D+01 0.000000000000D+00-0.102445483208D-07 0.470000000000D+02
    0.547218000000D+06 0.400000000000D+01 0.000000000000D+00 0.000000000000D+00
17 24 12 14 10  0  0.0 0.519629102200D-03-0.160298441187D-10 0.000000000000D+00
    0.320000000000D+02 0.145750000000D+03 0.427982112887D-08 0.119355339446D+01
    0.746548175812D-05 0.134496953106D-01 0.527314841747D-05 0.515359314537D+04
    0.554400000000D+06 0.186264514923D-08-0.247657140508D+01-0.350177288055D-06
    0.966153042872D+00 0.275250000000D+03-0.125657495588D+01-0.814605360154D-08
    0.316798910232D-09 0.100000000000D+01 0.234400000000D+04 0.000000000000D+00
    0.200000000000D+01 0.000000000000D+00-0.107102096081D-07 0.320000000000D+02
    0.547218000000D+06 0.400000000000D+01 0.000000000000D+00 0.000000000000D+00
18 24 12 14 10  0  0.0-0.660311896354D-03 0.454747350886D-12 0.000000000000D+00
    0.149000000000D+03-0.578437500000D+02 0.443232748137D-08-0.806497380276D+00
   -0.295788049698D-05 0.480432808399D-02-0.994652509689D-06 0.515372001839D+04
    0.554400000000D+06 0.242143869400D-07-0.146984686306D+01-0.204890966415D-07
    0.973963653198D+00 0.401937500000D+03-0.293378632247D+01-0.844570894053D-08
   -0.121433629627D-10 0.100000000000D+01 0.234400000000D+04 0.000000000000D+00
    0.200000000000D+01 0.000000000000D+00-0.838190317154D-08 0.405000000000D+03
    0.547218000000D+06 0.400000000000D+01 0.000000000000D+00 0.000000000000D+00
19 24 12 14 10  0  0.0 0.573812983930D-03 0.420641299570D-11 0.000000000000D+00
    0.490000000000D+02 0.154156250000D+03 0.416981654674D-08 0.306141650808D+01
    0.809691846371D-05 0.999638228677D-02 0.411644577980D-05 0.515360395622D+04
    0.554400000000D+06-0.143423676491D-06-0.243236166963D+01 0.119209289551D-06
    0.965334468524D+00 0.297531250000D+03 0.269276685456D+01-0.794747390133D-08
    0.311084386485D-09 0.100000000000D+01 0.234400000000D+04 0.000000000000D+00
    0.200000000000D+01 0.000000000000D+00-0.153668224812D-07 0.490000000000D+02
    0.547218000000D+06 0.400000000000D+01 0.000000000000D+00 0.000000000000D+00
21 24 12 14 10  0  0.0 0.959271565080D-04 0.272848410532D-11 0.000000000000D+00
    0.420000000000D+02-0.890625000000D+01 0.475876965043D-08 0.105533460048D+01
   -0.789761543274D-06 0.257369821193D-01-0.247918069363D-05 0.515363104820D+04
    0.554400000000D+06 0.549480319023D-06-0.158233905619D+01 0.176951289177D-06
    0.960576959452D+00 0.423031250000D+03-0.479469285100D+00-0.863535969739D-08
   -0.985755346381D-10 0.100000000000D+01 0.234400000000D+04 0.000000000000D+00
    0.200000000000D+01 0.000000000000D+00-0.102445483208D-07 0.420000000000D+02
    0.547218000000D+06 0.400000000000D+01 0.000000000000D+00 0.000000000000D+00
22 24 12 14 10  0  0.0-0.862521119416D-04-0.250111042988D-11 0.000000000000D+00
    0.390000000000D+02 0.521562500000D+02 0.414410118988D-08 0.171126815799D+01
    0.274367630482D-05 0.135975462617D-01 0.112764537334D-04 0.515367973137D+04
    0.554400000000D+06 0.346451997757D-06 0.278991065687D+01 0.596046447754D-07
    0.960153077475D+00 0.157343750000D+03-0.107960014408D+01-0.748352600461D-08
   -0.538236705434D-09 0.100000000000D+01 0.234400000000D+04 0.000000000000D+00
    0.200000000000D+01 0.000000000000D+00-0.111758708954D-07 0.390000000000D+02
    0.547218000000D+06 0.400000000000D+01 0.000000000000D+00 0.000000000000D+00
23 24 12 14 10  0  0.0 0.383253674954D-03 0.773070496507D-11 0.000000000000D+00
    0.155000000000D+03-0.164968750000D+03 0.370801159642D-08-0.192000826241D+01
   -0.861845910549D-05 0.495868909638D-02 0.991672277451D-05 0.515363731194D+04
    0.554400000000D+06 0.279396772385D-07-0.467566244834D+00-0.689178705216D-07
    0.982386952634D+00 0.197875000000D+03-0.288118543081D+01-0.761245994665D-08
    0.696457581682D-10 0.100000000000D+01 0.234400000000D+04 0.000000000000D+00
    0.200000000000D+01 0.000000000000D+00-0.838190317154D-08 0.667000000000D+03
    0.547218000000D+06 0.400000000000D+01 0.000000000000D+00 0.000000000000D+00
24 24 12 14 10  0  0.0-0.473557505757D-03 0.306954461848D-11 0.000000000000D+00
    0.630000000000D+02-0.256250000000D+01 0.579952728788D-08-0.654226943613D+00
    0.335276126862D-07 0.163797355490D-01 0.488199293613D-05 0.515367748833D+04
    0.554400000000D+06-0.968575477600D-07 0.155210747080D+01 0.281259417534D-06
    0.933582454817D+00 0.270000000000D+03 0.103868732566D+01-0.875465038061D-08
   -0.236438420038D-09 0.100000000000D+01 0.234400000000D+04 0.000000000000D+00
    0.200000000000D+01 0.000000000000D+00 0.232830643654D-08 0.630000000000D+02
    0.552708000000D+06 0.400000000000D+01 0.000000000000D+00 0.000000000000D+00
